RASSVET-3 9
1 68368U 26061J   26109.78339404  .00128773  48095-5  38858-3 0  9996
2 68368  82.3006  78.0179 0025322 330.1125  29.8700 15.91507463  4307
RASSVET-3 10
1 68369U 26061K   26109.66293897  .00129642  49004-5  39172-3 0  9996
2 68369  82.2970  78.1650 0020701 329.9519  30.0564 15.91673298  4280
RASSVET-3 11
1 68370U 26061L   26109.66232544  .00123866  43717-5  37404-3 0  9993
2 68370  82.2973  78.1639 0020486 329.7640  30.2449 15.91690254  4280
RASSVET-3 12
1 68371U 26061M   26109.65952315  .00132319  51876-5  39084-3 0  9992
2 68371  82.2968  78.1593 0020160 329.6114  30.3988 15.92131656  4284
RASSVET-3 13
1 68372U 26061N   26109.15713539  .00217646  15806-4  71601-3 0  9991
2 68372  82.2958  78.7312 0019660 333.8849  26.1429 15.90075144  4206
RASSVET-3 14
1 68373U 26061P   26109.78399002  .00148543  66803-5  48411-3 0  9992
2 68373  82.2941  78.0122 0019178 334.9045  25.1293 15.90259153  4308
RASSVET-3 15
1 68374U 26061Q   26109.21870304  .00106720  28749-5  35008-3 0  9996
2 68374  82.2965  78.6578 0018789 332.1554  27.8710 15.90125403  4211
RASSVET-3 16
1 68375U 26061R   26109.20299486  .00068242  00000+0  31493-3 0  9996
2 68375  82.2955  78.7955 0018139 342.2413  17.8219 15.83046862  4201
SUPERVIEW NEO-2 OBJECT A
1 68377U 26062A   26108.43016373  .00001809  00000+0  87784-4 0  9996
2 68377  97.4401 116.5919 0001482 110.1384 250.0010 15.19749454  3575
SUPERVIEW NEO-2 OBJECT B
1 68378U 26062B   26108.29848146  .00001805  00000+0  87683-4 0  9996
2 68378  97.4403 116.4568 0001721  86.6460 273.4972 15.19725530  3558
STARLINK-36296
1 68380U 26063A   26109.00002315 -.00127916  00000+0 -86934-3 0  9991
2 68380  97.2859 250.9333 0001227  92.7806  46.0139 15.75197508  2133
STARLINK-37111
1 68381U 26063B   26109.58335648 -.00034471  00000+0 -23095-3 0  9995
2 68381  97.2860 251.3782 0001208  79.0008 105.3767 15.75212489  5034
STARLINK-36946
1 68382U 26063C   26107.95454174  .00160717  00000+0  82248-3 0  9997
2 68382  97.2850 249.6875 0001434  75.1750 284.9677 15.80867690  3824
STARLINK-37121
1 68383U 26063D   26108.00004630 -.00165403  00000+0 -11266-2 0  9993
2 68383  97.2858 249.7065 0001263  84.1834 103.8642 15.75252071  4780
STARLINK-37137
1 68384U 26063E   26107.92347156  .00108874  00000+0  72057-3 0  9990
2 68384  97.2845 249.5766 0001459  82.9330 277.2101 15.75220922  3816
CZ-2D R/B
1 68379U 26062C   26109.63188997  .00008416  00000+0  26880-3 0  9993
2 68379  97.4972 118.1846 0050523 334.6780  25.1985 15.31468269  3781
