[{"OBJECT_NAME":"RASSVET-3 9","OBJECT_ID":"2026-061J","EPOCH":"2026-04-19T18:48:05.245056","MEAN_MOTION":15.91507463,"ECCENTRICITY":0.0025322,"INCLINATION":82.3006,"RA_OF_ASC_NODE":78.0179,"ARG_OF_PERICENTER":330.1125,"MEAN_ANOMALY":29.87,"EPHEMERIS_TYPE":0,"CLASSIFICATION_TYPE":"U","NORAD_CAT_ID":68368,"ELEMENT_SET_NO":999,"REV_AT_EPOCH":430,"BSTAR":0.00038858,"MEAN_MOTION_DOT":0.00128773,"MEAN_MOTION_DDOT":4.8095e-6},{"OBJECT_NAME":"RASSVET-3 10","OBJECT_ID":"2026-061K","EPOCH":"2026-04-19T15:54:37.927008","MEAN_MOTION":15.91673298,"ECCENTRICITY":0.0020701,"INCLINATION":82.297,"RA_OF_ASC_NODE":78.165,"ARG_OF_PERICENTER":329.9519,"MEAN_ANOMALY":30.0564,"EPHEMERIS_TYPE":0,"CLASSIFICATION_TYPE":"U","NORAD_CAT_ID":68369,"ELEMENT_SET_NO":999,"REV_AT_EPOCH":428,"BSTAR":0.00039172,"MEAN_MOTION_DOT":0.00129642,"MEAN_MOTION_DDOT":4.9004e-6},{"OBJECT_NAME":"RASSVET-3 11","OBJECT_ID":"2026-061L","EPOCH":"2026-04-19T15:53:44.918016","MEAN_MOTION":15.91690254,"ECCENTRICITY":0.0020486,"INCLINATION":82.2973,"RA_OF_ASC_NODE":78.1639,"ARG_OF_PERICENTER":329.764,"MEAN_ANOMALY":30.2449,"EPHEMERIS_TYPE":0,"CLASSIFICATION_TYPE":"U","NORAD_CAT_ID":68370,"ELEMENT_SET_NO":999,"REV_AT_EPOCH":428,"BSTAR":0.00037404,"MEAN_MOTION_DOT":0.00123866,"MEAN_MOTION_DDOT":4.3717e-6},{"OBJECT_NAME":"RASSVET-3 12","OBJECT_ID":"2026-061M","EPOCH":"2026-04-19T15:49:42.800160","MEAN_MOTION":15.92131656,"ECCENTRICITY":0.002016,"INCLINATION":82.2968,"RA_OF_ASC_NODE":78.1593,"ARG_OF_PERICENTER":329.6114,"MEAN_ANOMALY":30.3988,"EPHEMERIS_TYPE":0,"CLASSIFICATION_TYPE":"U","NORAD_CAT_ID":68371,"ELEMENT_SET_NO":999,"REV_AT_EPOCH":428,"BSTAR":0.00039084,"MEAN_MOTION_DOT":0.00132319,"MEAN_MOTION_DDOT":5.1876e-6},{"OBJECT_NAME":"RASSVET-3 13","OBJECT_ID":"2026-061N","EPOCH":"2026-04-19T03:46:16.497696","MEAN_MOTION":15.90075144,"ECCENTRICITY":0.001966,"INCLINATION":82.2958,"RA_OF_ASC_NODE":78.7312,"ARG_OF_PERICENTER":333.8849,"MEAN_ANOMALY":26.1429,"EPHEMERIS_TYPE":0,"CLASSIFICATION_TYPE":"U","NORAD_CAT_ID":68372,"ELEMENT_SET_NO":999,"REV_AT_EPOCH":420,"BSTAR":0.00071601,"MEAN_MOTION_DOT":0.00217646,"MEAN_MOTION_DDOT":1.5806e-5},{"OBJECT_NAME":"RASSVET-3 14","OBJECT_ID":"2026-061P","EPOCH":"2026-04-19T18:48:56.737728","MEAN_MOTION":15.90259153,"ECCENTRICITY":0.0019178,"INCLINATION":82.2941,"RA_OF_ASC_NODE":78.0122,"ARG_OF_PERICENTER":334.9045,"MEAN_ANOMALY":25.1293,"EPHEMERIS_TYPE":0,"CLASSIFICATION_TYPE":"U","NORAD_CAT_ID":68373,"ELEMENT_SET_NO":999,"REV_AT_EPOCH":430,"BSTAR":0.00048411,"MEAN_MOTION_DOT":0.00148543,"MEAN_MOTION_DDOT":6.6803e-6},{"OBJECT_NAME":"RASSVET-3 15","OBJECT_ID":"2026-061Q","EPOCH":"2026-04-19T05:14:55.942656","MEAN_MOTION":15.90125403,"ECCENTRICITY":0.0018789,"INCLINATION":82.2965,"RA_OF_ASC_NODE":78.6578,"ARG_OF_PERICENTER":332.1554,"MEAN_ANOMALY":27.871,"EPHEMERIS_TYPE":0,"CLASSIFICATION_TYPE":"U","NORAD_CAT_ID":68374,"ELEMENT_SET_NO":999,"REV_AT_EPOCH":421,"BSTAR":0.00035008,"MEAN_MOTION_DOT":0.0010672,"MEAN_MOTION_DDOT":2.8749e-6},{"OBJECT_NAME":"RASSVET-3 16","OBJECT_ID":"2026-061R","EPOCH":"2026-04-19T04:52:18.755904","MEAN_MOTION":15.83046862,"ECCENTRICITY":0.0018139,"INCLINATION":82.2955,"RA_OF_ASC_NODE":78.7955,"ARG_OF_PERICENTER":342.2413,"MEAN_ANOMALY":17.8219,"EPHEMERIS_TYPE":0,"CLASSIFICATION_TYPE":"U","NORAD_CAT_ID":68375,"ELEMENT_SET_NO":999,"REV_AT_EPOCH":420,"BSTAR":0.00031493,"MEAN_MOTION_DOT":0.00068242,"MEAN_MOTION_DDOT":0},{"OBJECT_NAME":"SUPERVIEW NEO-2 OBJECT A","OBJECT_ID":"2026-062A","EPOCH":"2026-04-18T10:19:26.146272","MEAN_MOTION":15.19749454,"ECCENTRICITY":0.0001482,"INCLINATION":97.4401,"RA_OF_ASC_NODE":116.5919,"ARG_OF_PERICENTER":110.1384,"MEAN_ANOMALY":250.001,"EPHEMERIS_TYPE":0,"CLASSIFICATION_TYPE":"U","NORAD_CAT_ID":68377,"ELEMENT_SET_NO":999,"REV_AT_EPOCH":357,"BSTAR":8.7784302e-5,"MEAN_MOTION_DOT":1.809e-5,"MEAN_MOTION_DDOT":0},{"OBJECT_NAME":"SUPERVIEW NEO-2 OBJECT B","OBJECT_ID":"2026-062B","EPOCH":"2026-04-18T07:09:48.798144","MEAN_MOTION":15.1972553,"ECCENTRICITY":0.00017216,"INCLINATION":97.4403,"RA_OF_ASC_NODE":116.4568,"ARG_OF_PERICENTER":86.646,"MEAN_ANOMALY":273.4972,"EPHEMERIS_TYPE":0,"CLASSIFICATION_TYPE":"U","NORAD_CAT_ID":68378,"ELEMENT_SET_NO":999,"REV_AT_EPOCH":355,"BSTAR":8.7682515e-5,"MEAN_MOTION_DOT":1.805e-5,"MEAN_MOTION_DDOT":0},{"OBJECT_NAME":"CZ-2D R/B","OBJECT_ID":"2026-062C","EPOCH":"2026-04-19T15:09:55.293408","MEAN_MOTION":15.31468269,"ECCENTRICITY":0.00505237,"INCLINATION":97.4972,"RA_OF_ASC_NODE":118.1846,"ARG_OF_PERICENTER":334.678,"MEAN_ANOMALY":25.1985,"EPHEMERIS_TYPE":0,"CLASSIFICATION_TYPE":"U","NORAD_CAT_ID":68379,"ELEMENT_SET_NO":999,"REV_AT_EPOCH":378,"BSTAR":0.00026879957,"MEAN_MOTION_DOT":8.416e-5,"MEAN_MOTION_DDOT":0},{"OBJECT_NAME":"STARLINK-36296","OBJECT_ID":"2026-063A","EPOCH":"2026-04-19T00:00:02.000160","MEAN_MOTION":15.75197508,"ECCENTRICITY":0.00012271,"INCLINATION":97.2859,"RA_OF_ASC_NODE":250.9333,"ARG_OF_PERICENTER":92.7806,"MEAN_ANOMALY":46.0139,"EPHEMERIS_TYPE":0,"CLASSIFICATION_TYPE":"U","NORAD_CAT_ID":68380,"ELEMENT_SET_NO":999,"REV_AT_EPOCH":213,"BSTAR":-0.00086934001,"MEAN_MOTION_DOT":-0.00127916,"MEAN_MOTION_DDOT":0},{"OBJECT_NAME":"STARLINK-37111","OBJECT_ID":"2026-063B","EPOCH":"2026-04-19T14:00:01.999872","MEAN_MOTION":15.75212489,"ECCENTRICITY":0.00012082,"INCLINATION":97.286,"RA_OF_ASC_NODE":251.3782,"ARG_OF_PERICENTER":79.0008,"MEAN_ANOMALY":105.3767,"EPHEMERIS_TYPE":0,"CLASSIFICATION_TYPE":"U","NORAD_CAT_ID":68381,"ELEMENT_SET_NO":999,"REV_AT_EPOCH":503,"BSTAR":-0.0002309486,"MEAN_MOTION_DOT":-0.00034471,"MEAN_MOTION_DDOT":0},{"OBJECT_NAME":"STARLINK-36946","OBJECT_ID":"2026-063C","EPOCH":"2026-04-17T22:54:32.406336","MEAN_MOTION":15.8086769,"ECCENTRICITY":0.00014348,"INCLINATION":97.285,"RA_OF_ASC_NODE":249.6875,"ARG_OF_PERICENTER":75.175,"MEAN_ANOMALY":284.9677,"EPHEMERIS_TYPE":0,"CLASSIFICATION_TYPE":"U","NORAD_CAT_ID":68382,"ELEMENT_SET_NO":999,"REV_AT_EPOCH":382,"BSTAR":0.00082248224,"MEAN_MOTION_DOT":0.00160717,"MEAN_MOTION_DDOT":0},{"OBJECT_NAME":"STARLINK-37121","OBJECT_ID":"2026-063D","EPOCH":"2026-04-18T00:00:04.000320","MEAN_MOTION":15.75252071,"ECCENTRICITY":0.00012635,"INCLINATION":97.2858,"RA_OF_ASC_NODE":249.7065,"ARG_OF_PERICENTER":84.1834,"MEAN_ANOMALY":103.8642,"EPHEMERIS_TYPE":0,"CLASSIFICATION_TYPE":"U","NORAD_CAT_ID":68383,"ELEMENT_SET_NO":999,"REV_AT_EPOCH":478,"BSTAR":-0.0011266034,"MEAN_MOTION_DOT":-0.00165403,"MEAN_MOTION_DDOT":0},{"OBJECT_NAME":"STARLINK-37137","OBJECT_ID":"2026-063E","EPOCH":"2026-04-17T22:09:47.942784","MEAN_MOTION":15.75220922,"ECCENTRICITY":0.00014596,"INCLINATION":97.2845,"RA_OF_ASC_NODE":249.5766,"ARG_OF_PERICENTER":82.933,"MEAN_ANOMALY":277.2101,"EPHEMERIS_TYPE":0,"CLASSIFICATION_TYPE":"U","NORAD_CAT_ID":68384,"ELEMENT_SET_NO":999,"REV_AT_EPOCH":381,"BSTAR":0.00072056825,"MEAN_MOTION_DOT":0.00108874,"MEAN_MOTION_DDOT":0}]
